[{"OBJECT_NAME":"DUPLEX","OBJECT_ID":"1998-067XS","EPOCH":"2026-03-23T23:11:21.726816","MEAN_MOTION":15.57109631,"ECCENTRICITY":0.00031395,"INCLINATION":51.6299,"RA_OF_ASC_NODE":357.993,"ARG_OF_PERICENTER":174.3509,"MEAN_ANOMALY":185.7519,"EPHEMERIS_TYPE":0,"CLASSIFICATION_TYPE":"U","NORAD_CAT_ID":66906,"ELEMENT_SET_NO":999,"REV_AT_EPOCH":1735,"BSTAR":0.0003950955,"MEAN_MOTION_DOT":0.00028808,"MEAN_MOTION_DDOT":0},{"OBJECT_NAME":"ISS OBJECT XT","OBJECT_ID":"1998-067XT","EPOCH":"2026-03-24T00:23:19.539168","MEAN_MOTION":15.74343929,"ECCENTRICITY":0.00053708,"INCLINATION":51.6254,"RA_OF_ASC_NODE":352.2978,"ARG_OF_PERICENTER":171.767,"MEAN_ANOMALY":188.3418,"EPHEMERIS_TYPE":0,"CLASSIFICATION_TYPE":"U","NORAD_CAT_ID":66907,"ELEMENT_SET_NO":999,"REV_AT_EPOCH":1743,"BSTAR":0.0013303942,"MEAN_MOTION_DOT":0.00200709,"MEAN_MOTION_DDOT":0},{"OBJECT_NAME":"ISS OBJECT XU","OBJECT_ID":"1998-067XU","EPOCH":"2026-03-24T00:18:50.563872","MEAN_MOTION":15.74539149,"ECCENTRICITY":0.00056143,"INCLINATION":51.6248,"RA_OF_ASC_NODE":352.2719,"ARG_OF_PERICENTER":172.3126,"MEAN_ANOMALY":187.7961,"EPHEMERIS_TYPE":0,"CLASSIFICATION_TYPE":"U","NORAD_CAT_ID":66908,"ELEMENT_SET_NO":999,"REV_AT_EPOCH":1743,"BSTAR":0.0013578396,"MEAN_MOTION_DOT":0.00206767,"MEAN_MOTION_DDOT":0},{"OBJECT_NAME":"SILVERSAT","OBJECT_ID":"1998-067XV","EPOCH":"2026-03-23T23:33:34.407072","MEAN_MOTION":15.78994089,"ECCENTRICITY":0.00062297,"INCLINATION":51.6221,"RA_OF_ASC_NODE":351.3039,"ARG_OF_PERICENTER":177.1516,"MEAN_ANOMALY":182.9521,"EPHEMERIS_TYPE":0,"CLASSIFICATION_TYPE":"U","NORAD_CAT_ID":66909,"ELEMENT_SET_NO":999,"REV_AT_EPOCH":1744,"BSTAR":0.0015388739,"MEAN_MOTION_DOT":0.00288378,"MEAN_MOTION_DDOT":0},{"OBJECT_NAME":"ISS OBJECT XW","OBJECT_ID":"1998-067XW","EPOCH":"2026-03-23T22:56:18.996288","MEAN_MOTION":15.73130824,"ECCENTRICITY":0.00058761,"INCLINATION":51.6238,"RA_OF_ASC_NODE":352.636,"ARG_OF_PERICENTER":171.3926,"MEAN_ANOMALY":188.7174,"EPHEMERIS_TYPE":0,"CLASSIFICATION_TYPE":"U","NORAD_CAT_ID":66910,"ELEMENT_SET_NO":999,"REV_AT_EPOCH":1742,"BSTAR":0.0012411548,"MEAN_MOTION_DOT":0.00177198,"MEAN_MOTION_DDOT":0},{"OBJECT_NAME":"ISS OBJECT XX","OBJECT_ID":"1998-067XX","EPOCH":"2026-03-24T00:06:28.537344","MEAN_MOTION":15.84339121,"ECCENTRICITY":0.00078645,"INCLINATION":51.6198,"RA_OF_ASC_NODE":349.9255,"ARG_OF_PERICENTER":180.6946,"MEAN_ANOMALY":179.4048,"EPHEMERIS_TYPE":0,"CLASSIFICATION_TYPE":"U","NORAD_CAT_ID":66911,"ELEMENT_SET_NO":999,"REV_AT_EPOCH":1745,"BSTAR":0.001612714,"MEAN_MOTION_DOT":0.00392372,"MEAN_MOTION_DDOT":0},{"OBJECT_NAME":"ISS OBJECT XY","OBJECT_ID":"1998-067XY","EPOCH":"2026-03-24T00:17:14.749728","MEAN_MOTION":15.66564755,"ECCENTRICITY":0.00040295,"INCLINATION":51.6277,"RA_OF_ASC_NODE":354.5382,"ARG_OF_PERICENTER":172.0225,"MEAN_ANOMALY":188.0836,"EPHEMERIS_TYPE":0,"CLASSIFICATION_TYPE":"U","NORAD_CAT_ID":66912,"ELEMENT_SET_NO":999,"REV_AT_EPOCH":1739,"BSTAR":0.00096250879,"MEAN_MOTION_DOT":0.00103447,"MEAN_MOTION_DDOT":0},{"OBJECT_NAME":"KNACKSAT-2","OBJECT_ID":"1998-067XZ","EPOCH":"2026-03-24T00:26:27.950784","MEAN_MOTION":15.53013062,"ECCENTRICITY":0.00098227,"INCLINATION":51.6326,"RA_OF_ASC_NODE":0.5913,"ARG_OF_PERICENTER":237.4563,"MEAN_ANOMALY":122.5479,"EPHEMERIS_TYPE":0,"CLASSIFICATION_TYPE":"U","NORAD_CAT_ID":67683,"ELEMENT_SET_NO":999,"REV_AT_EPOCH":701,"BSTAR":0.00061191478,"MEAN_MOTION_DOT":0.00038683,"MEAN_MOTION_DDOT":0},{"OBJECT_NAME":"CORAL","OBJECT_ID":"1998-067YA","EPOCH":"2026-03-24T00:38:41.714880","MEAN_MOTION":15.56726858,"ECCENTRICITY":0.00122715,"INCLINATION":51.6309,"RA_OF_ASC_NODE":359.8982,"ARG_OF_PERICENTER":226.7288,"MEAN_ANOMALY":133.2681,"EPHEMERIS_TYPE":0,"CLASSIFICATION_TYPE":"U","NORAD_CAT_ID":67684,"ELEMENT_SET_NO":999,"REV_AT_EPOCH":702,"BSTAR":0.0011500022,"MEAN_MOTION_DOT":0.00084434,"MEAN_MOTION_DDOT":0},{"OBJECT_NAME":"GXIBA-1","OBJECT_ID":"1998-067YB","EPOCH":"2026-03-23T22:41:45.328992","MEAN_MOTION":15.53503062,"ECCENTRICITY":0.00118221,"INCLINATION":51.6338,"RA_OF_ASC_NODE":0.8611,"ARG_OF_PERICENTER":234.4096,"MEAN_ANOMALY":125.5793,"EPHEMERIS_TYPE":0,"CLASSIFICATION_TYPE":"U","NORAD_CAT_ID":67685,"ELEMENT_SET_NO":999,"REV_AT_EPOCH":700,"BSTAR":0.00073089054,"MEAN_MOTION_DOT":0.00047226,"MEAN_MOTION_DDOT":0},{"OBJECT_NAME":"UITMSAT-2","OBJECT_ID":"1998-067YC","EPOCH":"2026-03-24T01:29:55.221216","MEAN_MOTION":15.54352229,"ECCENTRICITY":0.00088124,"INCLINATION":51.6326,"RA_OF_ASC_NODE":0.138,"ARG_OF_PERICENTER":205.0636,"MEAN_ANOMALY":154.9928,"EPHEMERIS_TYPE":0,"CLASSIFICATION_TYPE":"U","NORAD_CAT_ID":67686,"ELEMENT_SET_NO":999,"REV_AT_EPOCH":702,"BSTAR":0.00083754632,"MEAN_MOTION_DOT":0.00055892,"MEAN_MOTION_DDOT":0},{"OBJECT_NAME":"HMU-SAT2","OBJECT_ID":"1998-067YD","EPOCH":"2026-03-24T00:20:21.743520","MEAN_MOTION":15.53258522,"ECCENTRICITY":0.00083965,"INCLINATION":51.6328,"RA_OF_ASC_NODE":0.5652,"ARG_OF_PERICENTER":207.919,"MEAN_ANOMALY":152.1351,"EPHEMERIS_TYPE":0,"CLASSIFICATION_TYPE":"U","NORAD_CAT_ID":67687,"ELEMENT_SET_NO":999,"REV_AT_EPOCH":693,"BSTAR":0.00064805222,"MEAN_MOTION_DOT":0.00041357,"MEAN_MOTION_DDOT":0},{"OBJECT_NAME":"LEOPARD","OBJECT_ID":"1998-067YE","EPOCH":"2026-03-24T01:37:43.281984","MEAN_MOTION":15.53969684,"ECCENTRICITY":0.00086465,"INCLINATION":51.6323,"RA_OF_ASC_NODE":0.1737,"ARG_OF_PERICENTER":205.719,"MEAN_ANOMALY":154.3372,"EPHEMERIS_TYPE":0,"CLASSIFICATION_TYPE":"U","NORAD_CAT_ID":67688,"ELEMENT_SET_NO":999,"REV_AT_EPOCH":694,"BSTAR":0.00076117619,"MEAN_MOTION_DOT":0.00050002,"MEAN_MOTION_DDOT":0},{"OBJECT_NAME":"CREW DRAGON 12","OBJECT_ID":"2026-031A","EPOCH":"2026-03-24T03:55:35.551488","MEAN_MOTION":15.48514008,"ECCENTRICITY":0.00062677,"INCLINATION":51.6345,"RA_OF_ASC_NODE":0.8084,"ARG_OF_PERICENTER":226.2093,"MEAN_ANOMALY":133.8378,"EPHEMERIS_TYPE":0,"CLASSIFICATION_TYPE":"U","NORAD_CAT_ID":67796,"ELEMENT_SET_NO":999,"REV_AT_EPOCH":55850,"BSTAR":0.0002692749,"MEAN_MOTION_DOT":0.0001417,"MEAN_MOTION_DDOT":0},{"OBJECT_NAME":"PROGRESS-MS 33","OBJECT_ID":"2026-058A","EPOCH":"2026-03-23T01:13:34.369536","MEAN_MOTION":16.01170532,"ECCENTRICITY":0.00116217,"INCLINATION":51.6358,"RA_OF_ASC_NODE":6.8873,"ARG_OF_PERICENTER":152.2903,"MEAN_ANOMALY":207.8729,"EPHEMERIS_TYPE":0,"CLASSIFICATION_TYPE":"U","NORAD_CAT_ID":68319,"ELEMENT_SET_NO":999,"REV_AT_EPOCH":6,"BSTAR":0.00035870065,"MEAN_MOTION_DOT":0.00200487,"MEAN_MOTION_DDOT":2.8255529e-5},{"OBJECT_NAME":"SL-4 R/B","OBJECT_ID":"2026-058B","EPOCH":"2026-03-24T03:27:49.129632","MEAN_MOTION":16.45417185,"ECCENTRICITY":0.0007315,"INCLINATION":51.6482,"RA_OF_ASC_NODE":0.7405,"ARG_OF_PERICENTER":84.8434,"MEAN_ANOMALY":275.343,"EPHEMERIS_TYPE":0,"CLASSIFICATION_TYPE":"U","NORAD_CAT_ID":68320,"ELEMENT_SET_NO":999,"REV_AT_EPOCH":27,"BSTAR":0.00027517424,"MEAN_MOTION_DOT":0.10751138,"MEAN_MOTION_DDOT":1.2560806e-5}]
